HELIOS 1B               
1 25977U 99064A   21069.48530530  .00000051  00000-0  13431-4 0  9996
2 25977  98.3072 240.1448 0001393 149.3380 210.7914 14.82537727414535
TERRA                   
1 25994U 99068A   21069.55914944  .00000054  00000-0  21960-4 0  9991
2 25994  98.1842 145.7594 0001256  93.3428  13.5648 14.57123947128945
SL-16 R/B               
1 26070U 00006B   21069.44815142 -.00000273  00000-0 -11543-3 0  9999
2 26070  71.0047 334.2960 0014198  77.7292 282.5420 14.15471164 90275
MTI                     
1 26102U 00014A   21069.46676008  .00008431  00000-0  10900-3 0  9990
2 26102  97.4743 330.8952 0005703 340.2078  19.8904 15.59194902165914
TITAN 4B R/B            
1 26474U 00047B   21069.41253162  .00000215  00000-0  29349-4 0  9995
2 26474  67.9932  63.5503 0061145 265.4586  93.9570 14.96099761119024
ENVISAT                 
1 27386U 02009A   21069.58280132  .00000036  00000-0  25429-4 0  9999
2 27386  98.1457  68.7062 0001315  92.8120  16.4617 14.38015805996793
IDEFIX & ARIANE 42P R/B 
1 27422U 02021B   21069.47294333  .00000004  00000-0  18156-4 0  9994
2 27422  98.3906  26.0487 0012462 159.9835 200.1839 14.29310607983169
AQUA                    
1 27424U 02022A   21069.59193972  .00000087  00000-0  29406-4 0  9998
2 27424  98.2123  12.3766 0000444 141.7042  31.1842 14.57113601  2631
CZ-4B R/B               
1 27432U 02024C   21069.60103147 -.00000015  00000-0  16120-4 0  9997
2 27432  99.0903  82.3308 0051021 144.7571 324.3651 14.14105002971269
MIDORI II (ADEOS-II)    
1 27597U 02056A   21069.47404107  .00000025  00000-0  27676-4 0  9997
2 27597  98.5542  16.8233 0000525  30.0992 330.0220 14.27487702949760
H-2A R/B                
1 27601U 02056E   21069.55379291 -.00000056  00000-0 -55160-5 0  9993
2 27601  98.2004  97.2306 0071734 203.9248 308.4828 14.31990757952777
CZ-4B R/B               
1 28059U 03049C   21069.55020976  .00000033  00000-0  19719-4 0  9999
2 28059  98.4923 355.1161 0050987  46.0675 314.4711 14.52638776921462
CZ-2C R/B               
1 28222U 04012C   21069.54909282  .00000640  00000-0  41794-4 0  9999
2 28222  97.7159  39.4435 0046218 197.8926 227.4678 15.10740575926162
SL-16 R/B               
1 28353U 04021B   21069.50775433 -.00000314  00000-0 -13969-3 0  9991
2 28353  70.9990 101.3327 0007621 283.9407  76.0868 14.14238039864753
CZ-4B R/B               
1 28415U 04035C   21069.57204589 -.00000052  00000-0  89702-6 0  9990
2 28415  97.5793 113.7019 0051881 163.1346 197.1622 15.07045033903717
CZ-2C R/B               
1 28480U 04046B   21069.55579288  .00000065  00000-0  39253-4 0  9990
2 28480  98.0567  89.5079 0142427 156.4468 355.7521 14.25744239848336
ARIANE 5 R/B            
1 28499U 04049H   21069.26630719  .00000102  00000-0  19760-4 0  9991
2 28499  98.0609 178.0560 0093091 133.7145 280.6283 14.80097985875414
CZ-2D R/B               
1 28738U 05024B   21069.52860791  .00000571  00000-0  36555-4 0  9996
2 28738  97.3678  89.0367 0011458 352.3976   7.7079 15.12299045861617
SUZAKU (ASTRO-EII)      
1 28773U 05025A   21069.49403907  .00001333  00000-0  59395-4 0  9998
2 28773  31.3816  86.1145 0004448   5.7341 354.3357 15.18158089864415
ALOS (DAICHI)           
1 28931U 06002A   21069.44323451  .00000184  00000-0  44762-4 0  9995
2 28931  97.8770  48.5772 0001591  34.9397 325.1907 14.62807613806589
H-2A R/B                
1 28932U 06002B   21069.58054622  .00000371  00000-0  39963-4 0  9997
2 28932  98.3325  80.8288 0088636 170.1867 303.7305 14.92465289820833
AKARI (ASTRO-F)         
1 28939U 06005A   21069.53016046  .00003483  00000-0  89017-4 0  9992
2 28939  98.2495  80.9139 0090562 112.0132 249.0761 15.36152027821712
RESURS-DK 1             
1 29228U 06021A   21069.56404930  .00000126  00000-0  16772-4 0  9997
2 29228  69.9344 230.5019 0002742  12.5941 347.5288 15.02654015812699
GENESIS 1               
1 29252U 06029A   21069.57805349  .00000359  00000-0  27236-4 0  9997
2 29252  64.5213 150.9480 0032766 335.5356  24.4210 15.18509399808508
CZ-4B R/B               
1 29507U 06046C   21069.54816217  .00000848  00000-0  70334-4 0  9992
2 29507  97.7210  95.9909 0048513 350.4039   9.6253 15.00690200785274
CZ-2C R/B               
1 31114U 07010B   21069.56725326  .00000076  00000-0  54007-4 0  9995
2 31114  98.2378 270.1991 0059106 210.2874 149.4883 14.19348990720759
COSMO-SKYMED 1          
1 31598U 07023A   21069.53678391  .00000106  00000-0  19874-4 0  9998
2 31598  97.8870 254.8325 0001498  90.4682 269.6735 14.82155564744247
GENESIS 2               
1 31789U 07028A   21069.55201267  .00000696  00000-0  44405-4 0  9993
2 31789  64.5071 193.1998 0022632 211.3354 148.6422 15.17657997755547
COSMOS 2428             
1 31792U 07029A   21069.45739952  .00000037  00000-0  46102-4 0  9999
2 31792  70.8906  74.0382 0005494   4.4855 355.6313 14.12238597706333
SL-16 R/B               
1 31793U 07029B   21069.40677961  .00000039  00000-0  45213-4 0  9990
2 31793  70.9769  47.6838 0002795 265.7380 206.9918 14.14447358707261
KORONAS-FOTON           
1 33504U 09003A   21069.54400968  .00000435  00000-0  20929-4 0  9999
2 33504  82.4427 318.0166 0020583  79.1201 281.2346 15.15898509667687
H-2A R/B                
1 38341U 12025E   21069.49335508  .00000250  00000-0  36628-4 0  9990
2 38341  98.5234 248.2181 0056622  97.3368 263.4284 14.84184427476824
CUSAT 2 & FALCON 9 R/B  
1 39271U 13055G   21069.48714825  .00006477  00000-0  15056-3 0  9997
2 39271  80.9683 340.1799 0576214  88.3388 278.3686 14.51270666389271
SL-4 R/B                
1 39679U 14021B   21069.37594094  .00000536  00000-0  43724-4 0  9999
2 39679  51.6159 313.0342 0171018 147.3646 213.8031 15.06792106379114
ALOS-2                  
1 39766U 14029A   21069.57879009  .00000252  00000-0  40664-4 0  9993
2 39766  97.9193 168.3661 0001748  98.9046 261.2370 14.79475243367045
CZ-2C R/B               
1 40306U 14071B   21069.53516516  .00005189  00000-0  10338-3 0  9997
2 40306  97.3589  25.2712 0012412 276.7142  83.2695 15.47281318354953
SL-27 R/B               
1 40354U 14084B   21069.60307473  .00001475  00000-0  36364-4 0  9994
2 40354  74.7382 197.2519 0038100 252.5924 107.1122 15.40848187349112
YAOGAN 29               
1 41038U 15069A   21069.52981941  .00000030  00000-0  10885-4 0  9993
2 41038  98.0333  63.3895 0002350  97.5510 262.5965 14.80490133285648
ASTRO-H (HITOMI)        
1 41337U 16012A   21069.46940128  .00000336  00000-0  20222-4 0  9994
2 41337  31.0048 122.9764 0012313 180.4380 179.6246 14.98796678277445
HXMT (HUIYAN)           
1 42758U 17034A   21069.37748778  .00000493  00000-0  44186-4 0  9993
2 42758  43.0183  16.9140 0010740 261.9079 245.6238 15.09091533206042
CZ-2C R/B               
1 43521U 18054D   21069.46444421  .00000712  00000-0  40177-4 0  9993
2 43521  35.1549 340.1987 0082844 304.1560  55.1320 15.11348132149415
AEOLUS                  
1 43600U 18066A   21069.54683577  .00034264  00000-0  13289-3 0  9992
2 43600  96.7179  77.9024 0007560  84.2151 275.9984 15.87079437147560
SAOCOM 1A               
1 43641U 18076A   21069.54521815  .00000021  00000-0  92419-5 0  9992
2 43641  97.8889 257.8726 0001522  83.4581 276.6821 14.82151487131014
CREW DRAGON DEMO-1 DEB  
1 44064U 19011B   21069.33701477  .00050579  00000-0  28209-3 0  9990
2 44064  51.6261  34.9768 0002615  35.8236 324.2940 15.78892472114686
SAOCOM 1B               
1 46265U 20059A   21069.57636768 -.00000508  00000-0 -57216-4 0  9995
2 46265  97.8869 256.9776 0001380  76.2037 283.9356 14.82148009 28419
CZ-2F R/B               
1 46390U 20063B   21069.56157671  .00046135  11820-4  15946-3 0  9992
2 46390  50.2008 141.8563 0010423  29.0747 331.0817 15.90091291 29669
2020-063G               
1 46395U 20063G   21069.56063957  .00018241  00000-0  87201-4 0  9995
2 46395  50.2045 146.6417 0009637  24.1583 335.9849 15.82774860 29596
